#aV2014 11 11  0  0  0.00000000     288 DD+AD WGS84 FIT  NGA
## 1818 172800.00000000   300.00000000 56972 0.0000000000000
+   31     1  2  4  5  6  7  8  9 10 11 12 13 14 15 16 17 18
+         19 20 21 22 23 24 25 26 27 28 29 30 31 32  0  0  0
+          0  0  0  0  0  0  0  0  0  0  0  0  0  0  0  0  0
+          0  0  0  0  0  0  0  0  0  0  0  0  0  0  0  0  0
+          0  0  0  0  0  0  0  0  0  0  0  0  0  0  0  0  0
++         2  2  2  2  2  2  2  2  2  2  2  2  2  2  2  2  2
++         2  2  2  2  2  2  2  2  2  2  2  2  2  2  0  0  0
++         0  0  0  0  0  0  0  0  0  0  0  0  0  0  0  0  0
++         0  0  0  0  0  0  0  0  0  0  0  0  0  0  0  0  0
++         0  0  0  0  0  0  0  0  0  0  0  0  0  0  0  0  0
%c cc cc ccc ccc cccc cccc cccc cccc ccccc ccccc ccccc ccccc
%c cc cc ccc ccc cccc cccc cccc cccc ccccc ccccc ccccc ccccc
%f  0.0000000  0.000000000  0.00000000000  0.000000000000000
%f  0.0000000  0.000000000  0.00000000000  0.000000000000000
%i    0    0    0    0      0      0      0      0         0
%i    0    0    0    0      0      0      0      0         0
/*      NGA, ST. LOUIS,MO.                                  
/*   EPHEMERIS COMPUTED FROM  1 DAYS OF DATA                
/*   EPOCHA SMOOTHER                                       
/* CCCCCCCCCCCCCCCCCCCCCCCCCCCCCCCCCCCCCCCCCCCCCCCCCCCCCCCCC
*  2014 11 11  1 35  0.00000000
P  1 -16967.089998  -2889.032068  20219.758763    -12.262260                    
V  1 -10073.652618 -23713.034331 -11654.939871      0.003918                    
P  2  13906.787590  22724.675739  -2783.925275    529.376464                    
V  2   -970.258608   4852.470468  30706.933265      0.022083                    
P  4 -18210.743356 -11172.104674  15576.073811     -2.807834                    
V  4  -6878.428507 -19316.579478 -21197.450605     -0.005775                    
P  5   9293.284738  13288.625753 -21057.539044   -319.431214                    
V  5 -15659.741002  21647.332402   6940.431763      0.043928                    
P  6   4710.824019  24502.055088   9112.173799      8.841778                    
V  6  -7320.003756  -9339.948317  28831.461084      0.049089                    
P  7 -11345.828041  10498.894019 -21453.841871    411.425800                    
V  7 -11812.067275 -24834.819881  -6227.492883      0.038114                    
P  8 -16048.493005  -9020.185215 -19161.513437     16.281064                    
V  8  -7081.667631 -23458.677817  16183.363972      0.002015                    
P  9 -20961.394564   8301.778018 -14050.840256     -3.749322                    
V  9 -17628.300780  -3509.505113  24209.808985     -0.070198                    
P 10  -5719.008565  23052.007690 -11800.176299   -149.319281                    
V 10 -10940.076709  10186.870840  26438.363178     -0.016448                    
P 11 -21808.199071  -7430.477368  12828.965095   -535.450958                    
V 11  -9300.632161 -15063.474727 -23418.896411     -0.028094                    
P 12  17664.564185  -2051.046210  19580.812921    245.337339                    
V 12 -14231.185120  20610.841299  15140.965104      0.027883                    
P 13  -3954.837435  14464.589260 -22105.103720    -59.394690                    
V 13 -27117.311073  -5149.800293   1324.796397     -0.034705                    
P 14   4072.232879 -14663.232311  21995.563211    116.889416                    
V 14  26994.151606   4413.928652  -2220.790864     -0.036211                    
P 15  26434.899885   2966.414170  -2722.998492   -213.857428                    
V 15  -3475.734943   3189.920728 -30728.172371     -0.022285                    
P 16  -7903.627330 -13072.916121 -21731.978499   -181.673876                    
V 16  17335.389761 -21278.419084   6860.380194      0.028085                    
P 17  -5182.639632  14475.323327  21908.451968   -136.742914                    
V 17 -26915.757181  -3701.141083  -4195.369337     -0.025029                    
P 18  15912.457489 -20880.929550  -2205.042178    357.455960                    
V 18   1627.630943   5162.889512 -30986.786628      0.025980                    
P 19 -24378.891186  -8961.522842  -6757.537183   -487.562387                    
V 19   8483.918912   -643.648906 -30080.074819     -0.017096                    
P 20 -19151.830682   9147.561219  15725.637964    255.218482                    
V 20   8107.036375 -18984.086134  20723.838951      0.042212                    
P 21   7430.005916 -16397.565336 -18736.628917   -394.207387                    
V 21  13024.471335  21931.049023 -13972.689650     -0.020668                    
P 22   7197.781129 -23719.991186   9525.316162    285.785076                    
V 22   9663.893543  -7876.908151 -27705.861292      0.038652                    
P 23 -26341.637980   1066.736308  -4632.947804    -66.410313                    
V 23  -5726.333690  -3231.189515  30525.486000     -0.027936                    
P 24  17847.348289   6385.854266  18635.494700    -38.253013                    
V 24   9147.734768  21884.716201 -16129.988903     -0.005998                    
P 25  19035.228827 -14845.626554  10842.077639     14.806389                    
V 25  -6116.461536  12667.697005  28016.116816     -0.016825                    
P 26  19133.586843  13043.646834 -13913.795508   -118.781260                    
V 26 -16447.768241  -1416.811818 -24883.415406     -0.129508                    
P 27 -17341.713855 -12364.747550 -15929.842852     28.947960                    
V 27  20238.116471   -262.262245 -21775.849954      0.028300                    
P 28 -12191.801650  22682.223383   6843.143327    397.521031                    
V 28  -6342.080601   5027.973057 -30866.870267      0.027282                    
P 29  22535.303122  -5811.344657 -12737.825501    572.427912                    
V 29  15805.694272   4159.527907  26044.475908      0.024066                    
P 30  -4267.983645  20588.766663 -16194.954396    -79.418339                    
V 30  -9268.164358 -18501.957680 -21123.100151     -0.025122                    
P 31  -5506.930406 -24802.702986   7299.562479    329.244793                    
V 31   5880.114252   7389.427360  30484.534256     -0.005845                    
P 32 -14149.177080  -6932.351689  21340.539278   -296.819938                    
V 32  16666.543342 -21482.179100   4619.007026      0.089063                    
EOF
